NORAD_CAT_ID,OBJECT_NAME,OBJECT_TYPE,EPOCH,MEAN_MOTION,ECCENTRICITY,INCLINATION,RA_OF_ASC_NODE,ARG_OF_PERICENTER,MEAN_ANOMALY,BSTAR,MEAN_MOTION_DOT,MEAN_MOTION_DDOT,TLE_LINE0,TLE_LINE1,TLE_LINE2,SEMIMAJOR_AXIS,PERIOD,APOGEE,PERIGEE,DECAYED
52834.0,STARLINK-4108,PAYLOAD,2023-09-13 20:59:34,15.08883926,0.000112,53.2178,149.4563,76.4973,283.6144,-0.00039108,-6.514e-05,0.0,0 STARLINK-4108,1 52834U 22062E   23256.87471034 -.00006514  00000-0 -39108-3 0  9998,2 52834  53.2178 149.4563 0001120  76.4973 283.6144 15.08883926 68734,6917.746,95.435,540.386,538.836,0.0
52834.0,STARLINK-4108,PAYLOAD,2023-09-14 01:45:44,15.08859188,0.0001196,53.2172,148.5684,95.1624,264.9505,0.00013189,1.813e-05,0.0,0 STARLINK-4108,1 52834U 22062E   23257.07342813  .00001813  00000-0  13189-3 0  9999,2 52834  53.2172 148.5684 0001196  95.1624 264.9505 15.08859188 68765,6917.822,95.436,540.514,538.859,0.0
52834.0,STARLINK-4108,PAYLOAD,2023-09-14 14:28:50,15.08834463,0.0001469,53.2175,146.1859,105.5898,254.5256,-9.4639e-05,-1.794e-05,0.0,0 STARLINK-4108,1 52834U 22062E   23257.60336309 -.00001794  00000-0 -94639-4 0  9991,2 52834  53.2175 146.1859 0001469 105.5898 254.5256 15.08834463 68844,6917.897,95.438,540.779,538.746,0.0
52834.0,STARLINK-4108,PAYLOAD,2023-09-14 20:50:23,15.08826863,0.0001367,53.2171,144.9965,85.4365,274.6783,-0.00018064,-3.161e-05,0.0,0 STARLINK-4108,1 52834U 22062E   23257.86832883 -.00003161  00000-0 -18064-3 0  9994,2 52834  53.2171 144.9965 0001367  85.4365 274.6783 15.08826863 68883,6917.921,95.438,540.731,538.84,0.0
52834.0,STARLINK-4108,PAYLOAD,2023-09-15 01:36:33,15.08828063,0.0001418,53.2168,144.1052,83.2816,276.8337,-0.00014515,-2.596e-05,0.0,0 STARLINK-4108,1 52834U 22062E   23258.06704983 -.00002596  00000-0 -14515-3 0  9994,2 52834  53.2168 144.1052 0001418  83.2816 276.8337 15.08828063 68919,6917.917,95.438,540.763,538.801,0.0
52834.0,STARLINK-4108,PAYLOAD,2023-09-15 23:51:56,15.08850269,0.0001332,53.2166,139.9438,83.3373,276.777,0.00015003,2.101e-05,0.0,0 STARLINK-4108,1 52834U 22062E   23258.99440152  .00002101  00000-0  15003-3 0  9994,2 52834  53.2166 139.9438 0001332  83.3373 276.7770 15.08850269 69050,6917.849,95.437,540.635,538.793,0.0
52834.0,STARLINK-4108,PAYLOAD,2023-09-16 15:45:48,15.08838481,0.0001397,53.2163,136.9716,85.5962,274.5189,0.00027173,4.039e-05,0.0,0 STARLINK-4108,1 52834U 22062E   23259.65681000  .00004039  00000-0  27173-3 0  9990,2 52834  53.2163 136.9716 0001397  85.5962 274.5189 15.08838481 69155,6917.885,95.438,540.716,538.784,0.0
52834.0,STARLINK-4108,PAYLOAD,2023-09-16 23:42:43,15.08842997,0.0001408,53.2165,135.4837,96.4751,263.6401,0.00029455,4.403e-05,0.0,0 STARLINK-4108,1 52834U 22062E   23259.98800812  .00004403  00000-0  29455-3 0  9990,2 52834  53.2165 135.4837 0001408  96.4751 263.6401 15.08842997 69204,6917.871,95.437,540.71,538.762,0.0
52834.0,STARLINK-4108,PAYLOAD,2023-09-17 21:58:07,15.08845899,0.000137,53.2165,131.3208,98.4423,261.6725,5.5654e-05,5.98e-06,0.0,0 STARLINK-4108,1 52834U 22062E   23260.91536663  .00000598  00000-0  55654-4 0  9997,2 52834  53.2165 131.3208 0001370  98.4423 261.6725 15.08845899 69343,6917.862,95.437,540.675,538.78,0.0
52834.0,STARLINK-4108,PAYLOAD,2023-09-18 20:13:31,15.08840514,0.0001376,53.2164,127.1579,98.1249,261.9899,6.9439e-05,8.17e-06,0.0,0 STARLINK-4108,1 52834U 22062E   23261.84273002  .00000817  00000-0  69439-4 0  9995,2 52834  53.2164 127.1579 0001376  98.1249 261.9899 15.08840514 69484,6917.879,95.438,540.696,538.792,0.0
52834.0,STARLINK-4108,PAYLOAD,2023-09-18 21:48:54,15.08843978,0.0001406,53.2168,126.8616,93.4688,266.6465,0.00015854,2.236e-05,0.0,0 STARLINK-4108,1 52834U 22062E   23261.90896885  .00002236  00000-0  15854-3 0  9990,2 52834  53.2168 126.8616 0001406  93.4688 266.6465 15.08843978 69494,6917.868,95.437,540.706,538.761,0.0
52834.0,STARLINK-4108,PAYLOAD,2023-09-20 00:50:27,15.08858964,0.0001393,53.2162,121.8044,91.8896,268.2256,0.00035331,5.342e-05,0.0,0 STARLINK-4108,1 52834U 22062E   23263.03503881  .00005342  00000-0  35331-3 0  9990,2 52834  53.2162 121.8044 0001393  91.8896 268.2256 15.08858964 69662,6917.822,95.436,540.651,538.724,0.0
52834.0,STARLINK-4108,PAYLOAD,2023-09-20 18:19:42,15.08831095,0.0001891,53.2159,118.5258,116.18,243.9387,-0.00018616,-3.249e-05,0.0,0 STARLINK-4108,1 52834U 22062E   23263.76369073 -.00003249  00000-0 -18616-3 0  9996,2 52834  53.2159 118.5258 0001891 116.1800 243.9387 15.08831095 69770,6917.908,95.438,541.081,538.464,0.0
52834.0,STARLINK-4108,PAYLOAD,2023-09-20 19:55:06,15.08824967,0.0001913,53.217,118.227,119.6488,240.4695,1.4095e-06,-2.66e-06,0.0,0 STARLINK-4108,1 52834U 22062E   23263.82993546 -.00000266  00000-0  14095-5 0  9995,2 52834  53.2170 118.2270 0001913 119.6488 240.4695 15.08824967 69784,6917.926,95.439,541.115,538.468,0.0
52834.0,STARLINK-4108,PAYLOAD,2023-09-20 23:05:52,15.08825891,0.0001447,53.2162,117.6416,89.0088,271.107,-0.00021064,-3.637e-05,0.0,0 STARLINK-4108,1 52834U 22062E   23263.96241646 -.00003637  00000-0 -21064-3 0  9995,2 52834  53.2162 117.6416 0001447  89.0088 271.1070 15.08825891 69806,6917.924,95.438,540.79,538.787,0.0
52834.0,STARLINK-4108,PAYLOAD,2023-09-22 00:32:03,15.08840224,0.0001436,53.2159,112.8831,98.8415,261.2739,0.0002766,4.117e-05,0.0,0 STARLINK-4108,1 52834U 22062E   23265.02225957  .00004117  00000-0  27660-3 0  9991,2 52834  53.2159 112.8831 0001436  98.8415 261.2739 15.08840224 69966,6917.88,95.438,540.738,538.751,0.0
52834.0,STARLINK-4108,PAYLOAD,2023-09-22 21:12:03,15.0885721,0.0001437,53.2158,109.0175,97.2976,262.818,0.00062754,9.718e-05,0.0,0 STARLINK-4108,1 52834U 22062E   23265.88337676  .00009718  00000-0  62754-3 0  9992,2 52834  53.2158 109.0175 0001437  97.2976 262.8180 15.08857210 70096,6917.828,95.436,540.687,538.699,0.0
52834.0,STARLINK-4108,PAYLOAD,2023-09-23 19:27:27,15.08844713,0.0001193,53.2159,104.8547,91.4645,268.6484,5.1864e-05,5.38e-06,0.0,0 STARLINK-4108,1 52834U 22062E   23266.81073415  .00000538  00000-0  51864-4 0  9996,2 52834  53.2159 104.8547 0001193  91.4645 268.6484 15.08844713 70232,6917.866,95.437,540.556,538.906,0.0
52834.0,STARLINK-4108,PAYLOAD,2023-09-23 21:02:50,15.08850748,0.0001265,53.2159,104.5577,93.9009,266.2128,0.0002552,3.777e-05,0.0,0 STARLINK-4108,1 52834U 22062E   23266.87697263  .00003777  00000-0  25520-3 0  9992,2 52834  53.2159 104.5577 0001265  93.9009 266.2128 15.08850748 70248,6917.848,95.437,540.588,538.837,0.0
52834.0,STARLINK-4108,PAYLOAD,2023-09-24 12:56:41,15.08847029,0.0001397,53.2159,101.5857,85.457,274.6582,0.00028832,4.305e-05,0.0,0 STARLINK-4108,1 52834U 22062E   23267.53937329  .00004305  00000-0  28832-3 0  9993,2 52834  53.2159 101.5857 0001397  85.4570 274.6582 15.08847029 70347,6917.859,95.437,540.69,538.757,0.0
52834.0,STARLINK-4108,PAYLOAD,2023-09-24 19:18:14,15.08845157,0.0001339,53.216,100.3962,85.4173,274.6972,0.00035028,5.292e-05,0.0,0 STARLINK-4108,1 52834U 22062E   23267.80433388  .00005292  00000-0  35028-3 0  9990,2 52834  53.2160 100.3962 0001339  85.4173 274.6972 15.08845157 70385,6917.865,95.437,540.656,538.803,0.0
52834.0,STARLINK-4108,PAYLOAD,2023-09-24 20:53:37,15.0885027,0.0001377,53.2164,100.0979,86.1537,273.9612,0.00029842,4.466e-05,0.0,0 STARLINK-4108,1 52834U 22062E   23267.87057199  .00004466  00000-0  29842-3 0  9998,2 52834  53.2164 100.0979 0001377  86.1537 273.9612 15.08850270 70394,6917.849,95.437,540.667,538.761,0.0
52834.0,STARLINK-4108,PAYLOAD,2023-09-25 12:47:29,15.08842718,0.0001296,53.2165,97.1242,85.6627,274.4514,0.00029837,4.464e-05,0.0,0 STARLINK-4108,1 52834U 22062E   23268.53297613  .00004464  00000-0  29837-3 0  9991,2 52834  53.2165  97.1242 0001296  85.6627 274.4514 15.08842718 70494,6917.872,95.437,540.634,538.841,0.0
52834.0,STARLINK-4108,PAYLOAD,2023-09-25 19:09:01,15.08846424,0.0001266,53.2173,95.9321,105.5585,254.5547,0.00036596,5.542e-05,0.0,0 STARLINK-4108,1 52834U 22062E   23268.79793422  .00005542  00000-0  36596-3 0  9996,2 52834  53.2173  95.9321 0001266 105.5585 254.5547 15.08846424 70537,6917.861,95.437,540.602,538.85,0.0
52834.0,STARLINK-4108,PAYLOAD,2023-09-25 20:44:24,15.08845889,0.0001273,53.2171,95.6352,102.3577,257.7558,0.0003353,5.053e-05,0.0,0 STARLINK-4108,1 52834U 22062E   23268.86417442  .00005053  00000-0  33530-3 0  9991,2 52834  53.2171  95.6352 0001273 102.3577 257.7558 15.08845889 70542,6917.862,95.437,540.608,538.847,0.0
52834.0,STARLINK-4108,PAYLOAD,2023-09-26 17:24:25,15.0883609,0.0001398,53.2165,91.7696,93.6023,266.5129,1.8921e-05,1.3e-07,0.0,0 STARLINK-4108,1 52834U 22062E   23269.72530032  .00000013  00000-0  18921-4 0  9997,2 52834  53.2165  91.7696 0001398  93.6023 266.5129 15.08836090 70679,6917.892,95.438,540.724,538.79,0.0
52834.0,STARLINK-4108,PAYLOAD,2023-09-26 18:59:49,15.08838007,0.0001387,53.2166,91.4726,92.5365,267.5786,2.144e-05,5.3e-07,0.0,0 STARLINK-4108,1 52834U 22062E   23269.79154007  .00000053  00000-0  21440-4 0  9992,2 52834  53.2166  91.4726 0001387  92.5365 267.5786 15.08838007 70687,6917.886,95.438,540.711,538.792,0.0
52834.0,STARLINK-4108,PAYLOAD,2023-09-27 12:29:03,15.08835008,0.0001489,53.2167,88.2001,94.9611,265.1551,0.0001298,1.778e-05,0.0,0 STARLINK-4108,1 52834U 22062E   23270.52018326  .00001778  00000-0  12980-3 0  9991,2 52834  53.2167  88.2001 0001489  94.9611 265.1551 15.08835008 70795,6917.896,95.438,540.791,538.731,0.0
52834.0,STARLINK-4108,PAYLOAD,2023-09-27 18:50:35,15.08861725,0.000137,53.2167,87.0105,98.786,261.3288,0.00039586,6.021e-05,0.0,0 STARLINK-4108,1 52834U 22062E   23270.78512850  .00006021  00000-0  39586-3 0  9997,2 52834  53.2167  87.0105 0001370  98.7860 261.3288 15.08861725 70839,6917.814,95.436,540.627,538.731,0.0
52834.0,STARLINK-4108,PAYLOAD,2023-09-28 12:19:50,15.08841603,0.0001389,53.2167,83.7391,102.8493,257.2654,0.00010565,1.394e-05,0.0,0 STARLINK-4108,1 52834U 22062E   23271.51377779  .00001394  00000-0  10565-3 0  9992,2 52834  53.2167  83.7391 0001389 102.8493 257.2654 15.08841603 70944,6917.875,95.437,540.701,538.78,0.0
